NORAD_CAT_ID,OBJECT_NAME,OBJECT_TYPE,EPOCH,MEAN_MOTION,ECCENTRICITY,INCLINATION,RA_OF_ASC_NODE,ARG_OF_PERICENTER,MEAN_ANOMALY,BSTAR,MEAN_MOTION_DOT,MEAN_MOTION_DDOT,TLE_LINE0,TLE_LINE1,TLE_LINE2,SEMIMAJOR_AXIS,PERIOD,APOGEE,PERIGEE,DECAYED
55766.0,STARLINK-5599,PAYLOAD,2024-05-25 18:52:08,14.98330122,0.0003026,69.9998,70.6933,274.486,85.5953,5.9614e-06,-2.2e-07,0.0,0 STARLINK-5599,1 55766U 23028AB  24146.78620786 -.00000022  00000-0  59614-5 0  9990,2 55766  69.9998  70.6933 0003026 274.4860  85.5953 14.98330122 68722,6950.193,96.107,574.161,569.954,0.0
55766.0,STARLINK-5599,PAYLOAD,2024-05-26 12:29:36,14.98336156,0.0003011,69.9998,68.8413,268.8084,91.2731,-2.1672e-05,-3.52e-06,0.0,0 STARLINK-5599,1 55766U 23028AB  24147.52056273 -.00000352  00000-0 -21672-4 0  9996,2 55766  69.9998  68.8413 0003011 268.8084  91.2731 14.98336156 68847,6950.174,96.107,574.132,569.946,0.0
55766.0,STARLINK-5599,PAYLOAD,2024-05-26 20:30:17,14.98327988,0.0003059,69.9999,68.0002,270.6661,89.4147,6.1691e-05,6.43e-06,0.0,0 STARLINK-5599,1 55766U 23028AB  24147.85436720  .00000643  00000-0  61691-4 0  9997,2 55766  69.9999  68.0002 0003059 270.6661  89.4147 14.98327988 68885,6950.199,96.107,574.19,569.938,0.0
55766.0,STARLINK-5599,PAYLOAD,2024-05-26 22:06:25,14.98325241,0.0003353,69.9998,67.8318,272.2706,87.8069,9.8348e-05,1.08e-05,0.0,0 STARLINK-5599,1 55766U 23028AB  24147.92112779  .00001080  00000-0  98348-4 0  9995,2 55766  69.9998  67.8318 0003353 272.2706  87.8069 14.98325241 68904,6950.208,96.107,574.403,569.742,0.0
55766.0,STARLINK-5599,PAYLOAD,2024-05-27 12:31:37,14.98333887,0.0002988,70.0002,66.3164,268.659,91.4226,0.00011008,1.221e-05,0.0,0 STARLINK-5599,1 55766U 23028AB  24148.52196124  .00001221  00000-0  11008-3 0  9992,2 55766  70.0002  66.3164 0002988 268.6590  91.4226 14.98333887 68988,6950.181,96.107,574.123,569.969,0.0
55766.0,STARLINK-5599,PAYLOAD,2024-05-27 20:32:18,14.98327746,0.000293,70.0003,65.4749,267.7843,92.298,2.3622e-05,1.89e-06,0.0,0 STARLINK-5599,1 55766U 23028AB  24148.85576807  .00000189  00000-0  23622-4 0  9996,2 55766  70.0003  65.4749 0002930 267.7843  92.2980 14.98327746 69036,6950.2,96.107,574.101,570.028,0.0
55766.0,STARLINK-5599,PAYLOAD,2024-05-27 22:08:26,14.98327958,0.000293,70.0004,65.3066,267.8334,92.2489,2.4993e-05,2.05e-06,0.0,0 STARLINK-5599,1 55766U 23028AB  24148.92252794  .00000205  00000-0  24993-4 0  9991,2 55766  70.0004  65.3066 0002930 267.8334  92.2489 14.98327958 69055,6950.199,96.107,574.101,570.028,0.0
55766.0,STARLINK-5599,PAYLOAD,2024-05-28 04:32:58,14.98332961,0.0002873,70.0004,64.6333,266.9207,93.1624,7.9383e-05,8.54e-06,0.0,0 STARLINK-5599,1 55766U 23028AB  24149.18956325  .00000854  00000-0  79383-4 0  9994,2 55766  70.0004  64.6333 0002873 266.9207  93.1624 14.98332961 69083,6950.184,96.107,574.046,570.052,0.0
55766.0,STARLINK-5599,PAYLOAD,2024-05-28 22:10:26,14.98331521,0.0002645,70.0009,62.7835,261.6002,98.4857,5.3384e-05,5.44e-06,0.0,0 STARLINK-5599,1 55766U 23028AB  24149.92392360  .00000544  00000-0  53384-4 0  9998,2 55766  70.0009  62.7835 0002645 261.6002  98.4857 14.98331521 69207,6950.188,96.107,573.892,570.215,0.0
55766.0,STARLINK-5599,PAYLOAD,2024-05-29 04:34:58,14.98335765,0.0002847,70.0004,62.1088,271.1053,88.978,5.9832e-05,6.21e-06,0.0,0 STARLINK-5599,1 55766U 23028AB  24150.19096051  .00000621  00000-0  59832-4 0  9997,2 55766  70.0004  62.1088 0002847 271.1053  88.9780 14.98335765 69238,6950.175,96.107,574.019,570.061,0.0
55766.0,STARLINK-5599,PAYLOAD,2024-05-29 12:35:39,14.98332791,0.0003113,69.9999,61.2675,267.0961,92.9841,-4.0518e-05,-5.76e-06,0.0,0 STARLINK-5599,1 55766U 23028AB  24150.52476275 -.00000576  00000-0 -40518-4 0  9996,2 55766  69.9999  61.2675 0003113 267.0961  92.9841 14.98332791 69294,6950.184,96.107,574.213,569.886,0.0
55766.0,STARLINK-5599,PAYLOAD,2024-05-29 22:12:27,14.98332117,0.0002929,70.0,60.2575,267.07,93.0124,4.0153e-05,3.86e-06,0.0,0 STARLINK-5599,1 55766U 23028AB  24150.92532263  .00000386  00000-0  40153-4 0  9992,2 55766  70.0000  60.2575 0002929 267.0700  93.0124 14.98332117 69358,6950.186,96.107,574.087,570.016,0.0
55766.0,STARLINK-5599,PAYLOAD,2024-05-30 04:36:59,14.98338693,0.0002952,69.9999,59.584,267.6633,92.4188,8.9292e-05,9.73e-06,0.0,0 STARLINK-5599,1 55766U 23028AB  24151.19235645  .00000973  00000-0  89292-4 0  9995,2 55766  69.9999  59.5840 0002952 267.6633  92.4188 14.98338693 69386,6950.166,96.106,574.083,569.979,0.0
55766.0,STARLINK-5599,PAYLOAD,2024-05-30 12:37:40,14.98329201,0.0002953,69.9999,58.7424,268.6623,91.4198,-1.0917e-06,-1.06e-06,0.0,0 STARLINK-5599,1 55766U 23028AB  24151.52616427 -.00000106  00000-0 -10917-5 0  9992,2 55766  69.9999  58.7424 0002953 268.6623  91.4198 14.98329201 69437,6950.195,96.107,574.113,570.008,0.0
55766.0,STARLINK-5599,PAYLOAD,2024-05-30 14:13:48,14.98328735,0.0002966,69.9999,58.5741,268.3621,91.7198,2.9741e-06,-5.8e-07,0.0,0 STARLINK-5599,1 55766U 23028AB  24151.59292451 -.00000058  00000-0  29741-5 0  9996,2 55766  69.9999  58.5741 0002966 268.3621  91.7198 14.98328735 69452,6950.197,96.107,574.123,570.0,0.0
55766.0,STARLINK-5599,PAYLOAD,2024-05-30 22:14:28,14.98334403,0.0002995,69.9999,57.7325,268.5999,91.4817,4.0398e-05,3.89e-06,0.0,0 STARLINK-5599,1 55766U 23028AB  24151.92672023  .00000389  00000-0  40398-4 0  9996,2 55766  69.9999  57.7325 0002995 268.5999  91.4817 14.98334403 69503,6950.179,96.107,574.126,569.963,0.0
55766.0,STARLINK-5599,PAYLOAD,2024-05-31 04:39:00,14.98340646,0.0003009,69.9998,57.059,268.8558,91.2256,0.00011739,1.308e-05,0.0,0 STARLINK-5599,1 55766U 23028AB  24152.19375442  .00001308  00000-0  11739-3 0  9999,2 55766  69.9998  57.0590 0003009 268.8558  91.2256 14.98340646 69534,6950.16,96.106,574.116,569.934,0.0
55766.0,STARLINK-5599,PAYLOAD,2024-05-31 14:15:49,14.98334737,0.0003023,69.9998,56.049,268.5665,91.5147,4.6757e-06,-3.7e-07,0.0,0 STARLINK-5599,1 55766U 23028AB  24152.59431960 -.00000037  00000-0  46757-5 0  9990,2 55766  69.9998  56.0490 0003023 268.5665  91.5147 14.98334737 69608,6950.178,96.107,574.144,569.942,0.0
55766.0,STARLINK-5599,PAYLOAD,2024-05-31 20:40:21,14.98330833,0.0003027,69.9998,55.3759,268.3449,91.7364,9.5428e-05,1.046e-05,0.0,0 STARLINK-5599,1 55766U 23028AB  24152.86136033  .00001046  00000-0  95428-4 0  9991,2 55766  69.9998  55.3759 0003027 268.3449  91.7364 14.98330833 69639,6950.19,96.107,574.159,569.951,0.0
55766.0,STARLINK-5599,PAYLOAD,2024-05-31 22:16:29,14.98331155,0.0003032,69.9998,55.2076,268.505,91.5762,0.0001001,1.102e-05,0.0,0 STARLINK-5599,1 55766U 23028AB  24152.92812015  .00001102  00000-0  10010-3 0  9995,2 55766  69.9998  55.2076 0003032 268.5050  91.5762 14.98331155 69656,6950.189,96.107,574.162,569.947,0.0
55766.0,STARLINK-5599,PAYLOAD,2024-06-01 14:17:50,14.98325689,0.0003059,69.9998,53.5242,268.0691,92.0117,-3.7721e-05,-5.43e-06,0.0,0 STARLINK-5599,1 55766U 23028AB  24153.59572570 -.00000543  00000-0 -37721-4 0  9997,2 55766  69.9998  53.5242 0003059 268.0691  92.0117 14.98325689 69753,6950.206,96.107,574.197,569.945,0.0
55766.0,STARLINK-5599,PAYLOAD,2024-06-01 20:42:23,14.98307606,0.0002991,69.9998,52.8508,266.6501,93.4316,0.00048025,5.639e-05,0.0,0 STARLINK-5599,1 55766U 23028AB  24153.86277294  .00005639  00000-0  48025-3 0  9999,2 55766  69.9998  52.8508 0002991 266.6501  93.4316 14.98307606 69786,6950.262,96.108,574.206,570.048,0.0
55766.0,STARLINK-5599,PAYLOAD,2024-06-02 03:06:54,14.98334331,0.0003076,70.0012,52.1774,268.4463,91.6344,0.0001542,1.748e-05,0.0,0 STARLINK-5599,1 55766U 23028AB  24154.12979949  .00001748  00000-0  15420-3 0  9995,2 55766  70.0012  52.1774 0003076 268.4463  91.6344 14.98334331 69827,6950.179,96.107,574.182,569.907,0.0
55766.0,STARLINK-5599,PAYLOAD,2024-06-02 14:19:51,14.98331081,0.0003075,70.0016,50.9989,268.4176,91.6631,0.00012123,1.354e-05,0.0,0 STARLINK-5599,1 55766U 23028AB  24154.59712103  .00001354  00000-0  12123-3 0  9993,2 55766  70.0016  50.9989 0003075 268.4176  91.6631 14.98331081 69902,6950.19,96.107,574.192,569.917,0.0
55766.0,STARLINK-5599,PAYLOAD,2024-06-02 22:20:31,14.98340029,0.0003102,70.002,50.1572,267.8423,92.2381,0.00066218,7.819e-05,0.0,0 STARLINK-5599,1 55766U 23028AB  24154.93092015  .00007819  00000-0  66218-3 0  9990,2 55766  70.0020  50.1572 0003102 267.8423  92.2381 14.98340029 69952,6950.162,96.106,574.183,569.871,0.0
55766.0,STARLINK-5599,PAYLOAD,2024-06-03 03:08:55,14.98344852,0.0003109,70.002,49.6524,267.4664,92.6139,0.0008121,9.614e-05,0.0,0 STARLINK-5599,1 55766U 23028AB  24155.13119858  .00009614  00000-0  81210-3 0  9992,2 55766  70.0020  49.6524 0003109 267.4664  92.6139 14.98344852 69977,6950.147,96.106,574.173,569.851,0.0
55766.0,STARLINK-5599,PAYLOAD,2024-06-03 12:45:43,14.98339005,0.0003085,70.002,48.6423,267.3479,92.7327,0.00043232,5.07e-05,0.0,0 STARLINK-5599,1 55766U 23028AB  24155.53175912  .00005070  00000-0  43232-3 0  9993,2 55766  70.0020  48.6423 0003085 267.3479  92.7327 14.98339005 70033,6950.165,96.106,574.174,569.886,0.0
55766.0,STARLINK-5599,PAYLOAD,2024-06-03 14:21:52,14.98338941,0.0003074,70.0021,48.4739,267.2823,92.7984,0.00040169,4.704e-05,0.0,0 STARLINK-5599,1 55766U 23028AB  24155.59851883  .00004704  00000-0  40169-3 0  9996,2 55766  70.0021  48.4739 0003074 267.2823  92.7984 14.98338941 70051,6950.165,96.106,574.167,569.894,0.0
55766.0,STARLINK-5599,PAYLOAD,2024-06-03 22:22:32,14.98341534,0.0003058,70.0018,47.6326,267.7124,92.3685,0.00038944,4.558e-05,0.0,0 STARLINK-5599,1 55766U 23028AB  24155.93231674  .00004558  00000-0  38944-3 0  9999,2 55766  70.0018  47.6326 0003058 267.7124  92.3685 14.98341534 70103,6950.157,96.106,574.148,569.897,0.0
55766.0,STARLINK-5599,PAYLOAD,2024-06-04 09:35:28,14.98337141,0.0002988,70.0018,46.4543,267.996,92.0857,0.00057501,6.776e-05,0.0,0 STARLINK-5599,1 55766U 23028AB  24156.39963813  .00006776  00000-0  57501-3 0  9991,2 55766  70.0018  46.4543 0002988 267.9960  92.0857 14.98337141 70165,6950.171,96.107,574.113,569.959,0.0
